ONEWEB-0144             
1 47290U 20100AJ  25117.79795348  .00000234  00000+0  61518-3 0  9995
2 47290  87.8858  73.2820 0001827  91.3605 268.7732 13.12444023210082
ONEWEB-0145             
1 47291U 20100AK  25117.84500426  .00000069  00000+0  15631-3 0  9994
2 47291  87.8859  73.2982 0001921  84.6331 275.5017 13.12444051210284
ONEWEB-0146             
1 47292U 20100AL  25117.84174652 -.00000042  00000+0 -15130-3 0  9990
2 47292  87.8859  73.2850 0002141  72.8470 287.2892 13.12443279210199
ONEWEB-0147             
1 47293U 20100AM  25117.88390701 -.00000034  00000+0 -13040-3 0  9999
2 47293  87.8854  73.2583 0001687  80.8868 279.2451 13.12443986210098
ONEWEB-0115             
1 48042U 21025A   25117.77928902  .00000347  00000+0  91454-3 0  9997
2 48042  87.8984  42.7700 0001919  77.1816 282.9528 13.13468411199067
ONEWEB-0152             
1 48043U 21025B   25117.71664683 -.00002808  00000+0 -77257-2 0  9995
2 48043  87.8995  42.7931 0001947  74.4153 285.7191 13.13479833199013
ONEWEB-0153             
1 48044U 21025C   25117.31375830  .00000343  00000+0  90343-3 0  9997
2 48044  87.8990  42.8691 0001933  79.4971 280.6376 13.13468817198952
ONEWEB-0154             
1 48045U 21025D   25117.76745004  .00000208  00000+0  53359-3 0  9997
2 48045  87.8988  42.7805 0001839  77.2432 282.8902 13.13470547198973
